{
    "links": {
        "self": "http://www.neowsapp.com/rest/v1/neo/3766500?api_key=iIulBulltgU6a56xZRHN4H3l9WmuAYTsLGpBGhQ2"
    },
    "id": "3766500",
    "neo_reference_id": "3766500",
    "name": "(2017 AP19)",
    "designation": "2017 AP19",
    "nasa_jpl_url": "http://ssd.jpl.nasa.gov/sbdb.cgi?sstr=3766500",
    "absolute_magnitude_h": 23.6,
    "estimated_diameter": {
        "kilometers": {
            "estimated_diameter_min": 0.0506471459,
            "estimated_diameter_max": 0.1132504611
        },
        "meters": {
            "estimated_diameter_min": 50.6471458835,
            "estimated_diameter_max": 113.2504610618
        },
        "miles": {
            "estimated_diameter_min": 0.0314706677,
            "estimated_diameter_max": 0.0703705522
        },
        "feet": {
            "estimated_diameter_min": 166.1651821003,
            "estimated_diameter_max": 371.5566426699
        }
    },
    "is_potentially_hazardous_asteroid": false,
    "close_approach_data": [
        {
            "close_approach_date": "2002-02-16",
            "close_approach_date_full": "2002-Feb-16 01:44",
            "epoch_date_close_approach": 1013823840000,
            "relative_velocity": {
                "kilometers_per_second": "24.0408053799",
                "kilometers_per_hour": "86546.8993674719",
                "miles_per_hour": "53776.8775541938"
            },
            "miss_distance": {
                "astronomical": "0.4824339018",
                "lunar": "187.6667878002",
                "kilometers": "72171084.125069166",
                "miles": "44845032.1835438508"
            },
            "orbiting_body": "Earth"
        },
        {
            "close_approach_date": "2005-02-08",
            "close_approach_date_full": "2005-Feb-08 19:22",
            "epoch_date_close_approach": 1107890520000,
            "relative_velocity": {
                "kilometers_per_second": "20.7060181723",
                "kilometers_per_hour": "74541.6654202796",
                "miles_per_hour": "46317.2920496176"
            },
            "miss_distance": {
                "astronomical": "0.3668482202",
                "lunar": "142.7039576578",
                "kilometers": "54879712.355210974",
                "miles": "34100671.9883564812"
            },
            "orbiting_body": "Earth"
        },
        {
            "close_approach_date": "2008-02-02",
            "close_approach_date_full": "2008-Feb-02 08:05",
            "epoch_date_close_approach": 1201939500000,
            "relative_velocity": {
                "kilometers_per_second": "17.4894717941",
                "kilometers_per_hour": "62962.0984589058",
                "miles_per_hour": "39122.1994563129"
            },
            "miss_distance": {
                "astronomical": "0.2487740908",
                "lunar": "96.7731213212",
                "kilometers": "37216074.094866596",
                "miles": "23124996.1222311848"
            },
            "orbiting_body": "Earth"
        },
        {
            "close_approach_date": "2017-01-06",
            "close_approach_date_full": "2017-Jan-06 16:20",
            "epoch_date_close_approach": 1483719600000,
            "relative_velocity": {
                "kilometers_per_second": "11.3559997104",
                "kilometers_per_hour": "40881.5989576128",
                "miles_per_hour": "25402.2357523011"
            },
            "miss_distance": {
                "astronomical": "0.008610518",
                "lunar": "3.349491502",
                "kilometers": "1288115.15239666",
                "miles": "800397.640767508"
            },
            "orbiting_body": "Earth"
        }
    ],
    "orbital_data": {
        "orbit_id": "4",
        "orbit_determination_date": "2019-12-21 06:00:38",
        "first_observation_date": "2017-01-08",
        "last_observation_date": "2017-02-06",
        "data_arc_in_days": 29,
        "observations_used": 78,
        "orbit_uncertainty": "7",
        "minimum_orbit_intersection": ".00948244",
        "jupiter_tisserand_invariant": "3.550",
        "epoch_osculation": "2459000.5",
        "eccentricity": ".5432990450284976",
        "semi_major_axis": "2.065527065771019",
        "inclination": "13.05814916302057",
        "ascending_node_longitude": "106.2507404962616",
        "orbital_period": "1084.288276419711",
        "perihelion_distance": ".9433281834571098",
        "perihelion_argument": "336.424353390189",
        "aphelion_distance": "3.187725948084929",
        "perihelion_time": "2458827.556440953290",
        "mean_anomaly": "57.41986020765194",
        "mean_motion": ".3320150257353235",
        "equinox": "J2000",
        "orbit_class": {
            "orbit_class_type": "APO",
            "orbit_class_description": "Near-Earth asteroid orbits which cross the Earth’s orbit similar to that of 1862 Apollo",
            "orbit_class_range": "a (semi-major axis) > 1.0 AU; q (perihelion) < 1.017 AU"
        }
    },
    "is_sentry_object": false
}